NORAD_CAT_ID,OBJECT_NAME,OBJECT_TYPE,EPOCH,MEAN_MOTION,ECCENTRICITY,INCLINATION,RA_OF_ASC_NODE,ARG_OF_PERICENTER,MEAN_ANOMALY,BSTAR,MEAN_MOTION_DOT,MEAN_MOTION_DDOT,TLE_LINE0,TLE_LINE1,TLE_LINE2,SEMIMAJOR_AXIS,PERIOD,APOGEE,PERIGEE,DECAYED
228,DELTA 1 DEB (YO),DEBRIS,2020-12-06 12:31:38,15.01492488,0.0015237999999999999,48.4306,15.189,342.2346,17.8043,7.220100000000001e-05,6.84e-06,0.0,0 DELTA 1 DEB (YO),1   228U 62002C   20341.52197870 +.00000684 +00000-0 +72201-4 0  9995,2   228 048.4306 015.1890 0015238 342.2346 017.8043 15.01492488137079,6940.43,95.905,572.871,551.719,0.0
228,DELTA 1 DEB (YO),DEBRIS,2020-12-07 06:05:44,15.01493612,0.0015178,48.4306,11.588,345.4664,14.5822,6.8493e-05,6.35e-06,0.0,0 DELTA 1 DEB (YO),1 00228U 62002C   20342.25398247  .00000635  00000-0  68493-4 0  9991,2 00228  48.4306  11.5880 0015178 345.4664  14.5822 15.01493612137180,6940.427,95.905,572.826,551.758,0.0
228,DELTA 1 DEB (YO),DEBRIS,2020-12-07 12:29:02,15.014940099999999,0.0015155,48.4305,10.2784,346.654,13.3981,6.786800000000001e-05,6.27e-06,0.0,0 DELTA 1 DEB (YO),1   228U 62002C   20342.52016559 +.00000627 +00000-0 +67868-4 0  9990,2   228 048.4305 010.2784 0015155 346.6540 013.3981 15.01494010137220,6940.4259999999995,95.904,572.809,551.7719999999998,0.0
228,DELTA 1 DEB (YO),DEBRIS,2020-12-07 18:52:20,15.01494462,0.0015149,48.4305,8.9689,347.7943,12.2612,6.7211e-05,6.19e-06,0.0,0 DELTA 1 DEB (YO),1   228U 62002C   20342.78634847  .00000619  00000-0  67211-4 0  9997,2   228  48.4305   8.9689 0015149 347.7943  12.2612 15.01494462161395,6940.424,95.904,572.803,551.775,0.0
228,DELTA 1 DEB (YO),DEBRIS,2020-12-08 04:27:17,15.01494852,0.0015134999999999999,48.4305,7.0046,349.5514,10.5093,6.390399999999999e-05,5.75e-06,0.0,0 DELTA 1 DEB (YO),1   228U 62002C   20343.18562296 +.00000575 +00000-0 +63904-4 0  9996,2   228 048.4305 007.0046 0015135 349.5514 010.5093 15.01494852137324,6940.4230000000025,95.904,572.7919999999998,551.784,0.0
228,DELTA 1 DEB (YO),DEBRIS,2020-12-08 12:26:25,15.01495478,0.0015129000000000002,48.4305,5.367999999999999,351.0516,9.0136,6.5057e-05,5.9e-06,0.0,0 DELTA 1 DEB (YO),1 00228U 62002C   20343.51835156  .00000590  00000-0  65057-4 0  9999,2 00228  48.4305   5.3680 0015129 351.0516   9.0136 15.01495478137373,6940.4209999999985,95.904,572.786,551.786,0.0
228,DELTA 1 DEB (YO),DEBRIS,2020-12-09 06:00:30,15.01497033,0.0015098,48.4305,1.7668,354.2764,5.7985,7.1603e-05,6.76e-06,0.0,0 DELTA 1 DEB (YO),1   228U 62002C   20344.25035422  .00000676  00000-0  71603-4 0  9998,2   228  48.4305   1.7668 0015098 354.2764   5.7985 15.01497033161612,6940.416,95.904,572.76,551.803,0.0
228,DELTA 1 DEB (YO),DEBRIS,2020-12-09 10:47:59,15.01497465,0.0015113,48.4305,0.7848,355.1759,4.9017,7.3159e-05,6.97e-06,0.0,0 DELTA 1 DEB (YO),1 00228U 62002C   20344.44999117  .00000697  00000-0  73159-4 0  9990,2 00228  48.4305   0.7848 0015113 355.1759   4.9017 15.01497465137511,6940.415,95.904,572.769,551.7909999999998,0.0
228,DELTA 1 DEB (YO),DEBRIS,2020-12-10 02:46:14,15.01498368,0.0015071,48.4305,357.51099999999997,358.1302,1.9563,6.9587e-05,6.5000000000000004e-06,0.0,0 DELTA 1 DEB (YO),1 00228U 62002C   20345.11544718  .00000650  00000-0  69587-4 0  9997,2 00228  48.4305 357.5110 0015071 358.1302   1.9563 15.01498368137613,6940.4119999999975,95.904,572.737,551.817,0.0
228,DELTA 1 DEB (YO),DEBRIS,2020-12-10 07:33:43,15.01498666,0.001508,48.4304,356.5288,358.9904,1.0987,7.0737e-05,6.65e-06,0.0,0 DELTA 1 DEB (YO),1   228U 62002C   20345.31508419  .00000665  00000-0  70737-4 0  9992,2   228  48.4304 356.5288 0015080 358.9904   1.0987 15.01498666161779,6940.411,95.904,572.742,551.81,0.0
228,DELTA 1 DEB (YO),DEBRIS,2020-12-10 10:45:22,15.01498882,0.0015083,48.4304,355.8741,359.5869,0.5039,7.0688e-05,6.64e-06,0.0,0 DELTA 1 DEB (YO),1   228U 62002C   20345.44817534 +.00000664 +00000-0 +70688-4 0  9991,2   228 048.4304 355.8741 0015083 359.5869 000.5039 15.01498882137668,6940.411,95.904,572.744,551.807,0.0
228,DELTA 1 DEB (YO),DEBRIS,2020-12-11 07:31:06,15.01499232,0.0015025,48.4304,351.6182,3.484,356.6186,5.7372e-05,4.89e-06,0.0,0 DELTA 1 DEB (YO),1 00228U 62002C   20346.31326774  .00000489  00000-0  57372-4 0  9999,2 00228  48.4304 351.6182 0015025   3.4840 356.6186 15.01499232137793,6940.41,95.904,572.703,551.847,0.0
228,DELTA 1 DEB (YO),DEBRIS,2020-12-11 10:42:45,15.01499415,0.0015034,48.4304,350.9635,4.0774,356.027,5.7232e-05,4.87e-06,0.0,0 DELTA 1 DEB (YO),1   228U 62002C   20346.44635880  .00000487  00000-0  57232-4 0  9997,2   228  48.4304 350.9635 0015034   4.0774 356.0270 15.01499415161946,6940.409000000002,95.904,572.7080000000002,551.84,0.0
228,DELTA 1 DEB (YO),DEBRIS,2020-12-11 17:06:03,15.01499609,0.0015025,48.4304,349.6539,5.2311,354.8767,5.447e-05,4.51e-06,0.0,0 DELTA 1 DEB (YO),1 00228U 62002C   20346.71254086  .00000451  00000-0  54470-4 0  9994,2 00228  48.4304 349.6539 0015025   5.2311 354.8767 15.01499609137859,6940.408,95.904,572.701,551.845,0.0
228,DELTA 1 DEB (YO),DEBRIS,2020-12-12 04:16:50,15.01500053,0.0014987,48.4304,347.3622,7.3276,352.7864,5.2109e-05,4.2000000000000004e-06,0.0,0 DELTA 1 DEB (YO),1 00228U 62002C   20347.17835942  .00000420  00000-0  52109-4 0  9994,2 00228  48.4304 347.3622 0014987   7.3276 352.7864 15.01500053137925,6940.406999999997,95.904,572.674,551.87,0.0
228,DELTA 1 DEB (YO),DEBRIS,2020-12-12 10:40:08,15.01500388,0.0014974,48.4304,346.0529,8.5347,351.5829,5.1858000000000004e-05,4.17e-06,0.0,0 DELTA 1 DEB (YO),1   228U 62002C   20347.44454133 +.00000417 +00000-0 +51858-4 0  9999,2   228 048.4304 346.0529 0014974 008.5347 351.5829 15.01500388137968,6940.406,95.904,572.664,551.878,0.0
228,DELTA 1 DEB (YO),DEBRIS,2020-12-13 04:14:13,15.01501245,0.0014953,48.4304,342.4517,11.7928,348.3343,5.0604e-05,4e-06,0.0,0 DELTA 1 DEB (YO),1 00228U 62002C   20348.17654131  .00000400  00000-0  50604-4 0  9990,2 00228  48.4304 342.4517 0014953  11.7928 348.3343 15.01501245138074,6940.403,95.904,572.646,551.89,0.0
228,DELTA 1 DEB (YO),DEBRIS,2020-12-13 10:37:31,15.01501446,0.0014936,48.4304,341.1425,12.9845,347.1461,4.9338e-05,3.84e-06,0.0,0 DELTA 1 DEB (YO),1   228U 62002C   20348.44272316  .00000384  00000-0  49338-4 0  9994,2   228  48.4304 341.1425 0014936  12.9845 347.1461 15.01501446162247,6940.403,95.904,572.634,551.9019999999998,0.0
228,DELTA 1 DEB (YO),DEBRIS,2020-12-13 17:00:49,15.015016099999999,0.0014956,48.4304,339.833,14.1532,345.9808,4.7346000000000004e-05,3.58e-06,0.0,0 DELTA 1 DEB (YO),1 00228U 62002C   20348.70890498  .00000358  00000-0  47346-4 0  9998,2 00228  48.4304 339.8330 0014956  14.1532 345.9808 15.01501610138152,6940.401999999999,95.904,572.6469999999998,551.887,0.0
228,DELTA 1 DEB (YO),DEBRIS,2020-12-14 08:59:04,15.01502207,0.0014907,48.4303,336.5592,17.1846,342.958,4.509e-05,3.28e-06,0.0,0 DELTA 1 DEB (YO),1 00228U 62002C   20349.37435912  .00000328  00000-0  45090-4 0  9999,2 00228  48.4303 336.5592 0014907  17.1846 342.9580 15.01502207138250,6940.4,95.904,572.611,551.919,0.0
228,DELTA 1 DEB (YO),DEBRIS,2020-12-15 00:57:19,15.01503041,0.0014880000000000002,48.4303,333.2855,20.1769,339.974,4.4624e-05,3.22e-06,0.0,0 DELTA 1 DEB (YO),1   228U 62002C   20350.03981264  .00000322  00000-0  44624-4 0  9996,2   228  48.4303 333.2855 0014880  20.1769 339.9740 15.01503041162487,6940.398,95.904,572.59,551.935,0.0
228,DELTA 1 DEB (YO),DEBRIS,2020-12-15 08:56:27,15.01503421,0.0014877,48.4302,331.6487,21.6979,338.4572,4.4407e-05,3.19e-06,0.0,0 DELTA 1 DEB (YO),1 00228U 62002C   20350.37253935  .00000319  00000-0  44407-4 0  9995,2 00228  48.4302 331.6487 0014877  21.6979 338.4572 15.01503421138408,6940.397,95.904,572.587,551.936,0.0
228,DELTA 1 DEB (YO),DEBRIS,2020-12-16 08:53:50,15.01504386,0.0014835,48.4302,326.7381,26.2183,333.9489,4.1888e-05,2.86e-06,0.0,0 DELTA 1 DEB (YO),1 00228U 62002C   20351.37071889  .00000286  00000-0  41888-4 0  9995,2 00228  48.4302 326.7381 0014835  26.2183 333.9489 15.01504386138552,6940.394,95.904,572.555,551.9630000000002,0.0
228,DELTA 1 DEB (YO),DEBRIS,2020-12-17 02:27:54,15.01505041,0.0014798,48.4301,323.1369,29.5253,330.6504,4.0147e-05,2.63e-06,0.0,0 DELTA 1 DEB (YO),1   228U 62002C   20352.10271669  .00000263  00000-0  40147-4 0  9997,2   228  48.4301 323.1369 0014798  29.5253 330.6504 15.01505041162794,6940.392,95.904,572.5269999999998,551.986,0.0
228,DELTA 1 DEB (YO),DEBRIS,2020-12-17 08:51:12,15.01505347,0.0014793,48.4301,321.8274,30.7471,329.4316,4.0925e-05,2.73e-06,0.0,0 DELTA 1 DEB (YO),1 00228U 62002C   20352.36889767  .00000273  00000-0  40925-4 0  9994,2 00228  48.4301 321.8274 0014793  30.7471 329.4316 15.01505347138705,6940.391,95.904,572.523,551.989,0.0
228,DELTA 1 DEB (YO),DEBRIS,2020-12-17 15:14:30,15.01505534,0.0014786,48.4301,320.5179,31.9311,328.2506,3.9933e-05,2.6e-06,0.0,0 DELTA 1 DEB (YO),1 00228U 62002C   20352.63507860  .00000260  00000-0  39933-4 0  9998,2 00228  48.4301 320.5179 0014786  31.9311 328.2506 15.01505534138743,6940.39,95.904,572.5169999999998,551.993,0.0
228,DELTA 1 DEB (YO),DEBRIS,2020-12-17 23:13:38,15.01505878,0.0014767,48.43,318.881,33.4514,326.7339,4.0326e-05,2.65e-06,0.0,0 DELTA 1 DEB (YO),1 00228U 62002C   20352.96780463  .00000265  00000-0  40326-4 0  9999,2 00228  48.4300 318.8810 0014767  33.4514 326.7339 15.01505878138798,6940.389,95.904,572.503,552.005,0.0
228,DELTA 1 DEB (YO),DEBRIS,2020-12-18 19:59:21,15.01506627,0.001474,48.43,314.6251,37.385999999999996,322.8087,3.9294e-05,2.52e-06,0.0,0 DELTA 1 DEB (YO),1 00228U 62002C   20353.83289210  .00000252  00000-0  39294-4 0  9998,2 00228  48.4300 314.6251 0014740  37.3860 322.8087 15.01506627138924,6940.387,95.904,572.482,552.0219999999998,0.0
228,DELTA 1 DEB (YO),DEBRIS,2020-12-19 07:10:08,15.01506995,0.0014731,48.43,312.3335,39.5415,320.6581,3.8101999999999995e-05,2.36e-06,0.0,0 DELTA 1 DEB (YO),1   228U 62002C   20354.29870824  .00000236  00000-0  38102-4 0  9995,2   228  48.4300 312.3335 0014731  39.5415 320.6581 15.01506995163125,6940.3859999999995,95.904,572.475,552.0269999999998,0.0
